SKYKRAFT-1C             
1 55061U 23001BE  26068.70960345  .00004538  00000+0  18809-3 0  9997
2 55061  97.3326 124.5476 0011974 132.0782 228.1477 15.24327539176324
STARLINK-31159          
1 58740U 24005N   26068.46422473 -.00000317  00000+0 -21620-5 0  9997
2 58740  42.9962 220.6332 0000922 252.9268 107.1482 15.26737472120508
